GLOBALSTAR M084         
1 38040U 11080A   25349.34786584 -.00000082  00000+0  12001-3 0  9990
2 38040  51.9992 216.9569 0001295  73.5663  97.6073 12.62266626645542
GLOBALSTAR M080         
1 38041U 11080B   25349.07729852 -.00000079  00000+0  13964-3 0  9991
2 38041  52.0040 219.4348 0000693  98.6219  52.4168 12.62264863645633
GLOBALSTAR M082         
1 38042U 11080C   25349.25571087 -.00000076  00000+0  15725-3 0  9991
2 38042  52.0044 174.3722 0000860 104.4765  67.3279 12.62266264646367
GLOBALSTAR M092         
1 38043U 11080D   25349.22603179 -.00000094  00000+0  55820-4 0  9998
2 38043  52.0086 264.8502 0000792  62.5634  93.9093 12.62268371644816
GLOBALSTAR M090         
1 38044U 11080E   25349.28215116 -.00000080  00000+0  13453-3 0  9995
2 38044  52.0094 168.1885 0000931  88.1559  82.7687 12.62265485646484
GLOBALSTAR M086         
1 38045U 11080F   25349.22731120 -.00000071  00000+0  18357-3 0  9996
2 38045  51.9869 168.5848 0001422  41.7989 129.5952 12.62281170646422
GLOBALSTAR M097         
1 39072U 13005A   25349.29694181 -.00000119  00000+0 -86642-4 0  9995
2 39072  52.0051  83.1124 0000579 110.3388 249.7541 12.62267777593680
GLOBALSTAR M093         
1 39073U 13005B   25349.27085011 -.00000110  00000+0 -35907-4 0  9999
2 39073  52.0113  76.4699 0000318 115.0849 245.0051 12.62271097593637
